{
  "type": "FeatureCollection",
  "features": [
    {
      "type": "Feature",
      "properties": {
        "norad_id": 58701,
        "name": "TIANMU-1 16",
        "group": "weather",
        "lat": 62.76599037657257,
        "lon": 162.24274684413956,
        "alt_km": 488.9995522326426,
        "timestamp": "2025-12-22T04:03:38.804483+00:00",
        "meta_object_name": "TIANMU-1 16",
        "meta_object_id": "2024-004B",
        "meta_epoch": "2025-12-21T19:54:20.940192",
        "meta_mean_motion": 15.245444,
        "meta_eccentricity": 0.0004345,
        "meta_inclination": 97.4561,
        "meta_ra_of_asc_node": 176.6461,
        "meta_arg_of_pericenter": 254.6034,
        "meta_mean_anomaly": 105.4724,
        "meta_ephemeris_type": 0,
        "meta_classification_type": "U",
        "meta_norad_cat_id": 58701,
        "meta_element_set_no": 999,
        "meta_rev_at_epoch": 10873,
        "meta_bstar": 0.00022921,
        "meta_mean_motion_dot": 5.571e-05,
        "meta_mean_motion_ddot": 0,
        "tle_line1": "1 58701U 24004B   25355.82940903  .00005571  00000+0  22921-3 0  9992",
        "tle_line2": "2 58701  97.4561 176.6461 0004345 254.6034 105.4724 15.24544400108737"
      },
      "geometry": {
        "type": "Point",
        "coordinates": [
          162.24274684413956,
          62.76599037657257
        ]
      }
    },
    {
      "type": "Feature",
      "properties": {
        "norad_id": 58702,
        "name": "TIANMU-1 17",
        "group": "weather",
        "lat": 29.899904561030077,
        "lon": 1.720121074331867,
        "alt_km": 491.21126420455585,
        "timestamp": "2025-12-22T04:03:38.804501+00:00",
        "meta_object_name": "TIANMU-1 17",
        "meta_object_id": "2024-004C",
        "meta_epoch": "2025-12-21T21:06:18.262656",
        "meta_mean_motion": 15.24588465,
        "meta_eccentricity": 0.0003514,
        "meta_inclination": 97.4596,
        "meta_ra_of_asc_node": 177.1106,
        "meta_arg_of_pericenter": 255.8506,
        "meta_mean_anomaly": 104.2341,
        "meta_ephemeris_type": 0,
        "meta_classification_type": "U",
        "meta_norad_cat_id": 58702,
        "meta_element_set_no": 999,
        "meta_rev_at_epoch": 10873,
        "meta_bstar": 0.00023461,
        "meta_mean_motion_dot": 5.711e-05,
        "meta_mean_motion_ddot": 0,
        "tle_line1": "1 58702U 24004C   25355.87937804  .00005711  00000+0  23461-3 0  9990",
        "tle_line2": "2 58702  97.4596 177.1106 0003514 255.8506 104.2341 15.24588465108733"
      },
      "geometry": {
        "type": "Point",
        "coordinates": [
          1.720121074331867,
          29.899904561030077
        ]
      }
    },
    {
      "type": "Feature",
      "properties": {
        "norad_id": 58703,
        "name": "TIANMU-1 18",
        "group": "weather",
        "lat": -59.98749356333448,
        "lon": -15.51719546752781,
        "alt_km": 497.29826788027003,
        "timestamp": "2025-12-22T04:03:38.804518+00:00",
        "meta_object_name": "TIANMU-1 18",
        "meta_object_id": "2024-004D",
        "meta_epoch": "2025-12-21T20:42:24.173856",
        "meta_mean_motion": 15.24572611,
        "meta_eccentricity": 0.0002875,
        "meta_inclination": 97.4613,
        "meta_ra_of_asc_node": 177.2913,
        "meta_arg_of_pericenter": 253.3432,
        "meta_mean_anomaly": 106.749,
        "meta_ephemeris_type": 0,
        "meta_classification_type": "U",
        "meta_norad_cat_id": 58703,
        "meta_element_set_no": 999,
        "meta_rev_at_epoch": 10873,
        "meta_bstar": 0.00023771,
        "meta_mean_motion_dot": 5.785e-05,
        "meta_mean_motion_ddot": 0,
        "tle_line1": "1 58703U 24004D   25355.86277979  .00005785  00000+0  23771-3 0  9995",
        "tle_line2": "2 58703  97.4613 177.2913 0002875 253.3432 106.7490 15.24572611108739"
      },
      "geometry": {
        "type": "Point",
        "coordinates": [
          -15.51719546752781,
          -59.98749356333448
        ]
      }
    },
    {
      "type": "Feature",
      "properties": {
        "norad_id": 58990,
        "name": "INSAT-3DS",
        "group": "weather",
        "lat": 0.01727064467087659,
        "lon": -126.01844658398868,
        "alt_km": 35782.38806026804,
        "timestamp": "2025-12-22T04:03:38.804539+00:00",
        "meta_object_name": "INSAT-3DS",
        "meta_object_id": "2024-033A",
        "meta_epoch": "2025-12-21T18:43:24.431232",
        "meta_mean_motion": 1.00271991,
        "meta_eccentricity": 0.0001121,
        "meta_inclination": 0.0546,
        "meta_ra_of_asc_node": 101.6092,
        "meta_arg_of_pericenter": 172.1583,
        "meta_mean_anomaly": 179.7862,
        "meta_ephemeris_type": 0,
        "meta_classification_type": "U",
        "meta_norad_cat_id": 58990,
        "meta_element_set_no": 999,
        "meta_rev_at_epoch": 4529,
        "meta_bstar": 0,
        "meta_mean_motion_dot": -1.34e-06,
        "meta_mean_motion_ddot": 0,
        "tle_line1": "1 58990U 24033A   25355.78014388 -.00000134  00000+0  00000+0 0  9999",
        "tle_line2": "2 58990   0.0546 101.6092 0001121 172.1583 179.7862  1.00271991 45299"
      },
      "geometry": {
        "type": "Point",
        "coordinates": [
          -126.01844658398868,
          0.01727064467087659
        ]
      }
    },
    {
      "type": "Feature",
      "properties": {
        "norad_id": 59051,
        "name": "METEOR-M2 4",
        "group": "weather",
        "lat": -14.613455341749978,
        "lon": 130.64856077342486,
        "alt_km": 825.2390808316186,
        "timestamp": "2025-12-22T04:03:38.804610+00:00",
        "meta_object_name": "METEOR-M2 4",
        "meta_object_id": "2024-039A",
        "meta_epoch": "2025-12-21T20:23:42.141120",
        "meta_mean_motion": 14.22402544,
        "meta_eccentricity": 0.0006566,
        "meta_inclination": 98.678,
        "meta_ra_of_asc_node": 312.6163,
        "meta_arg_of_pericenter": 331.4275,
        "meta_mean_anomaly": 28.6542,
        "meta_ephemeris_type": 0,
        "meta_classification_type": "U",
        "meta_norad_cat_id": 59051,
        "meta_element_set_no": 999,
        "meta_rev_at_epoch": 9405,
        "meta_bstar": 2.1498e-05,
        "meta_mean_motion_dot": 4e-08,
        "meta_mean_motion_ddot": 0,
        "tle_line1": "1 59051U 24039A   25355.84979330  .00000004  00000+0  21498-4 0  9992",
        "tle_line2": "2 59051  98.6780 312.6163 0006566 331.4275  28.6542 14.22402544 94053"
      },
      "geometry": {
        "type": "Point",
        "coordinates": [
          130.64856077342486,
          -14.613455341749978
        ]
      }
    },
    {
      "type": "Feature",
      "properties": {
        "norad_id": 60133,
        "name": "GOES 19",
        "group": "weather",
        "lat": -0.007052891765787089,
        "lon": 76.70858612458227,
        "alt_km": 35787.11792573723,
        "timestamp": "2025-12-22T04:03:38.804634+00:00",
        "meta_object_name": "GOES 19",
        "meta_object_id": "2024-119A",
        "meta_epoch": "2025-12-21T17:58:20.322048",
        "meta_mean_motion": 1.00273318,
        "meta_eccentricity": 9.98e-05,
        "meta_inclination": 0.0065,
        "meta_ra_of_asc_node": 127.0729,
        "meta_arg_of_pericenter": 200.0746,
        "meta_mean_anomaly": 317.8144,
        "meta_ephemeris_type": 0,
        "meta_classification_type": "U",
        "meta_norad_cat_id": 60133,
        "meta_element_set_no": 999,
        "meta_rev_at_epoch": 518,
        "meta_bstar": 0,
        "meta_mean_motion_dot": -2.26e-06,
        "meta_mean_motion_ddot": 0,
        "tle_line1": "1 60133U 24119A   25355.74884632 -.00000226  00000+0  00000+0 0  9991",
        "tle_line2": "2 60133   0.0065 127.0729 0000998 200.0746 317.8144  1.00273318  5186"
      },
      "geometry": {
        "type": "Point",
        "coordinates": [
          76.70858612458227,
          -0.007052891765787089
        ]
      }
    },
    {
      "type": "Feature",
      "properties": {
        "norad_id": 65815,
        "name": "FENGYUN 3H",
        "group": "weather",
        "lat": -11.004116590513592,
        "lon": -62.74653711155999,
        "alt_km": 830.1365308425229,
        "timestamp": "2025-12-22T04:03:38.804652+00:00",
        "meta_object_name": "FENGYUN 3H",
        "meta_object_id": "2025-219A",
        "meta_epoch": "2025-12-21T19:39:25.384320",
        "meta_mean_motion": 14.19906859,
        "meta_eccentricity": 7.57e-05,
        "meta_inclination": 98.6598,
        "meta_ra_of_asc_node": 295.2127,
        "meta_arg_of_pericenter": 105.6382,
        "meta_mean_anomaly": 254.4878,
        "meta_ephemeris_type": 0,
        "meta_classification_type": "U",
        "meta_norad_cat_id": 65815,
        "meta_element_set_no": 999,
        "meta_rev_at_epoch": 1221,
        "meta_bstar": 4.1011e-05,
        "meta_mean_motion_dot": 4.4e-07,
        "meta_mean_motion_ddot": 0,
        "tle_line1": "1 65815U 25219A   25355.81904380  .00000044  00000+0  41011-4 0  9995",
        "tle_line2": "2 65815  98.6598 295.2127 0000757 105.6382 254.4878 14.19906859 12210"
      },
      "geometry": {
        "type": "Point",
        "coordinates": [
          -62.74653711155999,
          -11.004116590513592
        ]
      }
    }
  ]
}